{"type": "FeatureCollection", "features": [ {"type": "Feature", "properties": {"norad_id": 29843, "name": "FENGYUN 1C DEB", "group": "fengyun-1c-debris", "lat": 26.62910448102154, "lon": -177.94447623247115, "alt_km": 818.4901047339326, "timestamp": "2025-12-14T05:42:18.731596+00:00", "meta": {"OBJECT_NAME": "FENGYUN 1C DEB", "OBJECT_ID": "1999-025EM", "EPOCH": "2025-12-13T13:01:42.584736", "MEAN_MOTION": 14.2856336, "ECCENTRICITY": 0.01917498, "INCLINATION": 99.0372, "RA_OF_ASC_NODE": 185.9127, "ARG_OF_PERICENTER": 288.3938, "MEAN_ANOMALY": 124.983, "EPHEMERIS_TYPE": 0, "CLASSIFICATION_TYPE": "U", "NORAD_CAT_ID": 29843, "ELEMENT_SET_NO": 999, "REV_AT_EPOCH": 98293, "BSTAR": 0.00026058997, "MEAN_MOTION_DOT": 7.42e-06, "MEAN_MOTION_DDOT": 0}, "tle": {"line1": "1 29843U 99025EM  25347.54285399  .00000742  00000+0  26059-3 0  9994", "line2": "2 29843  99.0372 185.9127 0191749 288.3938 124.9830 14.28563360982939"}}, "geometry": {"type": "Point", "coordinates": [-177.94447623247115, 26.62910448102154]}}, {"type": "Feature", "properties": {"norad_id": 29844, "name": "FENGYUN 1C DEB", "group": "fengyun-1c-debris", "lat": 79.34188239718152, "lon": -167.10142186498265, "alt_km": 751.7435052387382, "timestamp": "2025-12-14T05:42:18.731606+00:00", "meta": {"OBJECT_NAME": "FENGYUN 1C DEB", "OBJECT_ID": "1999-025EN", "EPOCH": "2025-12-13T15:53:30.313824", "MEAN_MOTION": 14.31986697, "ECCENTRICITY": 0.01681104, "INCLINATION": 98.9361, "RA_OF_ASC_NODE": 249.0324, "ARG_OF_PERICENTER": 164.3641, "MEAN_ANOMALY": 196.2825, "EPHEMERIS_TYPE": 0, "CLASSIFICATION_TYPE": "U", "NORAD_CAT_ID": 29844, "ELEMENT_SET_NO": 999, "REV_AT_EPOCH": 98354, "BSTAR": 0.00053994125, "MEAN_MOTION_DOT": 1.643e-05, "MEAN_MOTION_DDOT": 0}, "tle": {"line1": "1 29844U 99025EN  25347.66215641  .00001643  00000+0  53994-3 0  9990", "line2": "2 29844  98.9361 249.0324 0168110 164.3641 196.2825 14.31986697983547"}}, "geometry": {"type": "Point", "coordinates": [-167.10142186498265, 79.34188239718152]}}, {"type": "Feature", "properties": {"norad_id": 29845, "name": "FENGYUN 1C DEB", "group": "fengyun-1c-debris", "lat": -51.508093063706696, "lon": -0.5895986412991657, "alt_km": 866.3728299036811, "timestamp": "2025-12-14T05:42:18.731616+00:00", "meta": {"OBJECT_NAME": "FENGYUN 1C DEB", "OBJECT_ID": "1999-025EP", "EPOCH": "2025-12-13T12:08:19.537152", "MEAN_MOTION": 14.26487634, "ECCENTRICITY": 0.00779407, "INCLINATION": 98.522, "RA_OF_ASC_NODE": 347.8295, "ARG_OF_PERICENTER": 128.9822, "MEAN_ANOMALY": 22.1805, "EPHEMERIS_TYPE": 0, "CLASSIFICATION_TYPE": "U", "NORAD_CAT_ID": 29845, "ELEMENT_SET_NO": 999, "REV_AT_EPOCH": 98120, "BSTAR": 0.00088929506, "MEAN_MOTION_DOT": 2.17e-05, "MEAN_MOTION_DDOT": 0}, "tle": {"line1": "1 29845U 99025EP  25347.50578168  .00002170  00000+0  88930-3 0  9994", "line2": "2 29845  98.5220 347.8295 0077940 128.9822  22.1805 14.26487634981206"}}, "geometry": {"type": "Point", "coordinates": [-0.5895986412991657, -51.508093063706696]}}, {"type": "Feature", "properties": {"norad_id": 29846, "name": "FENGYUN 1C DEB", "group": "fengyun-1c-debris", "lat": -60.35332072683348, "lon": 45.544706612096064, "alt_km": 775.103369493394, "timestamp": "2025-12-14T05:42:18.731626+00:00", "meta": {"OBJECT_NAME": "FENGYUN 1C DEB", "OBJECT_ID": "1999-025EQ", "EPOCH": "2025-12-13T15:20:13.031808", "MEAN_MOTION": 14.19092852, "ECCENTRICITY": 0.00838689, "INCLINATION": 98.6552, "RA_OF_ASC_NODE": 29.4373, "ARG_OF_PERICENTER": 301.6863, "MEAN_ANOMALY": 180.1053, "EPHEMERIS_TYPE": 0, "CLASSIFICATION_TYPE": "U", "NORAD_CAT_ID": 29846, "ELEMENT_SET_NO": 999, "REV_AT_EPOCH": 97872, "BSTAR": 0.00019148339, "MEAN_MOTION_DOT": 3.71e-06, "MEAN_MOTION_DDOT": 0}, "tle": {"line1": "1 29846U 99025EQ  25347.63903972  .00000371  00000+0  19148-3 0  9990", "line2": "2 29846  98.6552  29.4373 0083868 301.6863 180.1053 14.19092852978726"}}, "geometry": {"type": "Point", "coordinates": [45.544706612096064, -60.35332072683348]}}, {"type": "Feature", "properties": {"norad_id": 29847, "name": "FENGYUN 1C DEB", "group": "fengyun-1c-debris", "lat": 77.56301464145999, "lon": -150.59213888520918, "alt_km": 848.5754258278821, "timestamp": "2025-12-14T05:42:18.731637+00:00", "meta": {"OBJECT_NAME": "FENGYUN 1C DEB", "OBJECT_ID": "1999-025ER", "EPOCH": "2025-12-13T12:42:32.479776", "MEAN_MOTION": 14.02998621, "ECCENTRICITY": 0.00851639, "INCLINATION": 98.9027, "RA_OF_ASC_NODE": 343.422, "ARG_OF_PERICENTER": 36.674, "MEAN_ANOMALY": 86.2779, "EPHEMERIS_TYPE": 0, "CLASSIFICATION_TYPE": "U", "NORAD_CAT_ID": 29847, "ELEMENT_SET_NO": 999, "REV_AT_EPOCH": 96746, "BSTAR": 0.0004129033, "MEAN_MOTION_DOT": 6.19e-06, "MEAN_MOTION_DDOT": 0}, "tle": {"line1": "1 29847U 99025ER  25347.52954259  .00000619  00000+0  41290-3 0  9991", "line2": "2 29847  98.9027 343.4220 0085163  36.6740  86.2779 14.02998621967467"}}, "geometry": {"type": "Point", "coordinates": [-150.59213888520918, 77.56301464145999]}}, {"type": "Feature", "properties": {"norad_id": 29848, "name": "FENGYUN 1C DEB", "group": "fengyun-1c-debris", "lat": -1.4389150067099528, "lon": -145.05563644963988, "alt_km": 793.7681436535349, "timestamp": "2025-12-14T05:42:18.731647+00:00", "meta": {"OBJECT_NAME": "FENGYUN 1C DEB", "OBJECT_ID": "1999-025ES", "EPOCH": "2025-12-13T14:45:16.370784", "MEAN_MOTION": 14.20576257, "ECCENTRICITY": 0.0117016, "INCLINATION": 98.2487, "RA_OF_ASC_NODE": 214.1541, "ARG_OF_PERICENTER": 292.7196, "MEAN_ANOMALY": 120.7405, "EPHEMERIS_TYPE": 0, "CLASSIFICATION_TYPE": "U", "NORAD_CAT_ID": 29848, "ELEMENT_SET_NO": 999, "REV_AT_EPOCH": 97130, "BSTAR": 0.0017479938, "MEAN_MOTION_DOT": 3.988e-05, "MEAN_MOTION_DDOT": 0}, "tle": {"line1": "1 29848U 99025ES  25347.61477281  .00003988  00000+0  17480-2 0  9992", "line2": "2 29848  98.2487 214.1541 0117016 292.7196 120.7405 14.20576257971309"}}, "geometry": {"type": "Point", "coordinates": [-145.05563644963988, -1.4389150067099528]}}, {"type": "Feature", "properties": {"norad_id": 29849, "name": "FENGYUN 1C DEB", "group": "fengyun-1c-debris", "lat": 58.42259546947035, "lon": -92.43583852145946, "alt_km": 860.4246774250951, "timestamp": "2025-12-14T05:42:18.731657+00:00", "meta": {"OBJECT_NAME": "FENGYUN 1C DEB", "OBJECT_ID": "1999-025ET", "EPOCH": "2025-12-13T12:07:20.341056", "MEAN_MOTION": 14.0489638, "ECCENTRICITY": 0.00806034, "INCLINATION": 99.0113, "RA_OF_ASC_NODE": 71.8753, "ARG_OF_PERICENTER": 42.5278, "MEAN_ANOMALY": 333.6169, "EPHEMERIS_TYPE": 0, "CLASSIFICATION_TYPE": "U", "NORAD_CAT_ID": 29849, "ELEMENT_SET_NO": 999, "REV_AT_EPOCH": 96381, "BSTAR": 0.0013151759, "MEAN_MOTION_DOT": 2.132e-05, "MEAN_MOTION_DDOT": 0}, "tle": {"line1": "1 29849U 99025ET  25347.50509654  .00002132  00000+0  13152-2 0  9993", "line2": "2 29849  99.0113  71.8753 0080603  42.5278 333.6169 14.04896380963814"}}, "geometry": {"type": "Point", "coordinates": [-92.43583852145946, 58.42259546947035]}}, {"type": "Feature", "properties": {"norad_id": 29850, "name": "FENGYUN 1C DEB", "group": "fengyun-1c-debris", "lat": 32.609228472732575, "lon": -90.53063487189009, "alt_km": 914.0296648477306, "timestamp": "2025-12-14T05:42:18.731668+00:00", "meta": {"OBJECT_NAME": "FENGYUN 1C DEB", "OBJECT_ID": "1999-025EU", "EPOCH": "2025-12-13T13:15:20.295072", "MEAN_MOTION": 13.99863094, "ECCENTRICITY": 0.01023487, "INCLINATION": 98.1228, "RA_OF_ASC_NODE": 274.1028, "ARG_OF_PERICENTER": 287.4453, "MEAN_ANOMALY": 252.3748, "EPHEMERIS_TYPE": 0, "CLASSIFICATION_TYPE": "U", "NORAD_CAT_ID": 29850, "ELEMENT_SET_NO": 999, "REV_AT_EPOCH": 96031, "BSTAR": 0.0017172468, "MEAN_MOTION_DOT": 2.599e-05, "MEAN_MOTION_DDOT": 0}, "tle": {"line1": "1 29850U 99025EU  25347.55231823  .00002599  00000+0  17172-2 0  9993", "line2": "2 29850  98.1228 274.1028 0102348 287.4453 252.3748 13.99863094960313"}}, "geometry": {"type": "Point", "coordinates": [-90.53063487189009, 32.609228472732575]}}, {"type": "Feature", "properties": {"norad_id": 29851, "name": "FENGYUN 1C DEB", "group": "fengyun-1c-debris", "lat": -70.26345731783867, "lon": -178.90536572563124, "alt_km": 866.9581344379267, "timestamp": "2025-12-14T05:42:18.731679+00:00", "meta": {"OBJECT_NAME": "FENGYUN 1C DEB", "OBJECT_ID": "1999-025EV", "EPOCH": "2025-12-13T16:55:09.193728", "MEAN_MOTION": 13.83599905, "ECCENTRICITY": 0.01421332, "INCLINATION": 99.5843, "RA_OF_ASC_NODE": 28.6471, "ARG_OF_PERICENTER": 224.9624, "MEAN_ANOMALY": 254.6865, "EPHEMERIS_TYPE": 0, "CLASSIFICATION_TYPE": "U", "NORAD_CAT_ID": 29851, "ELEMENT_SET_NO": 999, "REV_AT_EPOCH": 95380, "BSTAR": 0.0004445397, "MEAN_MOTION_DOT": 4.83e-06, "MEAN_MOTION_DDOT": 0}, "tle": {"line1": "1 29851U 99025EV  25347.70496752  .00000483  00000+0  44454-3 0  9999", "line2": "2 29851  99.5843  28.6471 0142133 224.9624 254.6865 13.83599905953809"}}, "geometry": {"type": "Point", "coordinates": [-178.90536572563124, -70.26345731783867]}}, {"type": "Feature", "properties": {"norad_id": 29852, "name": "FENGYUN 1C DEB", "group": "fengyun-1c-debris", "lat": -31.535849095155125, "lon": 172.26195832933774, "alt_km": 834.481880986139, "timestamp": "2025-12-14T05:42:18.731689+00:00", "meta": {"OBJECT_NAME": "FENGYUN 1C DEB", "OBJECT_ID": "1999-025EW", "EPOCH": "2025-12-13T13:55:22.675584", "MEAN_MOTION": 14.07072782, "ECCENTRICITY": 0.01351655, "INCLINATION": 99.3716, "RA_OF_ASC_NODE": 357.397, "ARG_OF_PERICENTER": 147.6718, "MEAN_ANOMALY": 333.6254, "EPHEMERIS_TYPE": 0, "CLASSIFICATION_TYPE": "U", "NORAD_CAT_ID": 29852, "ELEMENT_SET_NO": 999, "REV_AT_EPOCH": 95996, "BSTAR": 0.0019689922, "MEAN_MOTION_DOT": 3.532e-05, "MEAN_MOTION_DDOT": 0}, "tle": {"line1": "1 29852U 99025EW  25347.58012356  .00003532  00000+0  19690-2 0  9991", "line2": "2 29852  99.3716 357.3970 0135165 147.6718 333.6254 14.07072782959964"}}, "geometry": {"type": "Point", "coordinates": [172.26195832933774, -31.535849095155125]}}]}